{
  "norad_id": 42695,
  "name": "GSAT-9",
  "history": [
    {
      "epoch": "2026-03-28T08:24:12.089952Z",
      "apogee_km": 35797.51575796831,
      "perigee_km": 35776.368284236065,
      "latitude_deg": 0.024834479137515842,
      "longitude_deg": 97.34022847248437,
      "height_km": 35778.551398779484,
      "semi_major_axis_km": 42165.07902110219,
      "eccentricity": 0.00025077,
      "inclination_deg": 0.0512,
      "raan_deg": 306.5069,
      "arg_perigee_deg": 60.5999,
      "mean_anomaly_deg": 42.0127,
      "mean_motion_rev_day": 1.00270547
    },
    {
      "epoch": "2026-03-29T01:30:56.278368Z",
      "apogee_km": 35797.89257253883,
      "perigee_km": 35775.99203034967,
      "latitude_deg": 0.02266881662565298,
      "longitude_deg": 97.28671652848884,
      "height_km": 35780.66908206431,
      "semi_major_axis_km": 42165.07930144425,
      "eccentricity": 0.0002597,
      "inclination_deg": 0.0509,
      "raan_deg": 309.0779,
      "arg_perigee_deg": 55.9026,
      "mean_anomaly_deg": 301.5173,
      "mean_motion_rev_day": 1.00270546
    },
    {
      "epoch": "2026-03-30T01:28:29.572032Z",
      "apogee_km": 35797.99738484544,
      "perigee_km": 35776.03355692335,
      "latitude_deg": 0.023339571301012,
      "longitude_deg": 97.27458354989179,
      "height_km": 35781.06012364106,
      "semi_major_axis_km": 42165.15247088439,
      "eccentricity": 0.00026045,
      "inclination_deg": 0.0503,
      "raan_deg": 311.3824,
      "arg_perigee_deg": 55.995,
      "mean_anomaly_deg": 299.4828,
      "mean_motion_rev_day": 1.00270285
    },
    {
      "epoch": "2026-03-30T07:32:38.802336Z",
      "apogee_km": 35797.94517815899,
      "perigee_km": 35776.02184540009,
      "latitude_deg": 0.025381644816674022,
      "longitude_deg": 97.31433163788569,
      "height_km": 35776.719909995736,
      "semi_major_axis_km": 42165.12051177954,
      "eccentricity": 0.00025997,
      "inclination_deg": 0.05,
      "raan_deg": 311.4237,
      "arg_perigee_deg": 59.1059,
      "mean_anomaly_deg": 27.6185,
      "mean_motion_rev_day": 1.00270399
    }
  ]
}